{"type":"FeatureCollection","features":[{"type":"Feature","geometry":{"type":"Point","coordinates":[103.77957,-3.654684,0]},"properties":{"name":"SMAN 1 Unggulan Muara Enim","styleUrl":"#m_ylw-pushpin","icon-scale":1.1,"icon-offset":[20,2],"icon-offset-units":["pixels","pixels"],"icon":"http://maps.google.com/mapfiles/kml/pushpin/ylw-pushpin.png"}},{"type":"Feature","geometry":{"type":"Point","coordinates":[103.79722,-3.762292,0]},"properties":{"name":"SMA Bukit Asam Tanjung Enim","styleUrl":"#m_ylw-pushpin","icon-scale":1.1,"icon-offset":[20,2],"icon-offset-units":["pixels","pixels"],"icon":"http://maps.google.com/mapfiles/kml/pushpin/ylw-pushpin.png"}},{"type":"Feature","geometry":{"type":"Point","coordinates":[103.783395,-3.675997,0]},"properties":{"name":"SMA IT Thawalib Muara Enim","styleUrl":"#m_ylw-pushpin","icon-scale":1.1,"icon-offset":[20,2],"icon-offset-units":["pixels","pixels"],"icon":"http://maps.google.com/mapfiles/kml/pushpin/ylw-pushpin.png"}},{"type":"Feature","geometry":{"type":"Point","coordinates":[103.796056,-3.751712,0]},"properties":{"name":"SMA Muhammadiyah 2 Tanjung Enim","styleUrl":"#m_ylw-pushpin","icon-scale":1.1,"icon-offset":[20,2],"icon-offset-units":["pixels","pixels"],"icon":"http://maps.google.com/mapfiles/kml/pushpin/ylw-pushpin.png"}},{"type":"Feature","geometry":{"type":"Point","coordinates":[103.780717,-3.643478,0]},"properties":{"name":"SMA Muhammadiyah 3 Muara Enim ","styleUrl":"#m_ylw-pushpin","icon-scale":1.1,"icon-offset":[20,2],"icon-offset-units":["pixels","pixels"],"icon":"http://maps.google.com/mapfiles/kml/pushpin/ylw-pushpin.png"}},{"type":"Feature","geometry":{"type":"Point","coordinates":[103.780656,-3.673791,0]},"properties":{"name":"SMA Negeri 7 Muara Enim","styleUrl":"#m_ylw-pushpin","icon-scale":1.1,"icon-offset":[20,2],"icon-offset-units":["pixels","pixels"],"icon":"http://maps.google.com/mapfiles/kml/pushpin/ylw-pushpin.png"}},{"type":"Feature","geometry":{"type":"Point","coordinates":[103.775884,-3.637348,0]},"properties":{"name":"SMA Negeri 3 Muara Enim","styleUrl":"#m_ylw-pushpin","icon-scale":1.1,"icon-offset":[20,2],"icon-offset-units":["pixels","pixels"],"icon":"http://maps.google.com/mapfiles/kml/pushpin/ylw-pushpin.png"}},{"type":"Feature","geometry":{"type":"Point","coordinates":[103.790899,-3.759647,0]},"properties":{"name":"SMA Xaverius Tanjung Enim","styleUrl":"#m_ylw-pushpin","icon-scale":1.1,"icon-offset":[20,2],"icon-offset-units":["pixels","pixels"],"icon":"http://maps.google.com/mapfiles/kml/pushpin/ylw-pushpin.png"}},{"type":"Feature","geometry":{"type":"Point","coordinates":[103.773704,-3.660571,0]},"properties":{"name":"SMA PGRI Muara Enim","styleUrl":"#m_ylw-pushpin","icon-scale":1.1,"icon-offset":[20,2],"icon-offset-units":["pixels","pixels"],"icon":"http://maps.google.com/mapfiles/kml/pushpin/ylw-pushpin.png"}}]}